sat12745
1 12745U 81053CN  20046.42151759  .00000289  00000-0  23097-3 0  9995
2 12745  83.1384  35.6871 0046850  90.7614  60.9265 13.86913590937921
